,Category,Company Name,Website,Phone Number,Street Address,City,State,Zip Code
0,Accounting,Dallas Chapter Texas Society of Certified Public Accountants,http://cpadallas.org,(972) 960-8313,12222 Merit Dr Ste 300,Dallas,TX,75251
1,Accounting,Accountants International,http://cpadallas.org,(972) 991-2078,12655 N Central Expy,Dallas,TX,75243
2,Accounting,Accountants Office,http://cpadallas.org,(972) 386-0361,5520 Lyndon B Johnson Fwy Ste 580,Dallas,TX,75240
3,Accounting,The Accountants Education Group,http://cpadallas.org,(214) 575-9816,8111 Lyndon B Johnson Fwy Ste 1345,Dallas,TX,75251
4,Accounting,Accountants in the Dallas Area Aervices,http://cpadallas.org,(214) 531-4540,13805 Peyton Dr Suite 101,Dallas,TX,75240
5,Accounting,Accountants Dallas TX,http://cpadallas.org,,None,None,None,None
6,Accounting,Accountants Dallas Texas Area Service,http://cpadallas.org,,None,None,None,None
7,Accounting,Accountants Inc. - CLOSED,http://cpadallas.org,,None,None,None,None
8,Accounting,Brad Gross Certified Public Accountant,http://cpadallas.org,(214) 871-7500,2626 Howell St,Dallas,TX,75204
9,Accounting,James Youngblood Certified Public Accountant,http://cpadallas.org,(214) 871-7500,2626 Howell St Ste 700,Dallas,TX,75204
10,Accounting,Edward Mercer Certified Public Accountant,http://cpadallas.org,(214) 219-8691,3838 Oak Lawn Ave,Dallas,TX,75219
11,Accounting,Steve L Vinson Certified Public Accountant,http://cpadallas.org,(214) 559-3690,4245 N Central Expy Ste 440,Dallas,TX,75205
12,Accounting,William B Williamson Certified Public Accountant,http://cpadallas.org,(214) 350-1398,217 Exchange Park Mall,Dallas,TX,75235
13,Accounting,J David Joiner Certified Public Accountant,http://cpadallas.org,(214) 365-9100,5910 N Central Expy Ste 350,Dallas,TX,75206
14,Accounting,Ronald E Scott Certified Public Accountant,http://cpadallas.org,(214) 363-0844,6060 N Central Expy Ste 644,Dallas,TX,75206
15,Accounting,Charles W Crowder Certified Public Accountant,http://cpadallas.org,(214) 821-2003,6754 Ravendale Ln,Dallas,TX,75214
16,Accounting,David T Waggoner Certified Public Accountant,http://cpadallas.org,(214) 369-0674,8222 Douglas Ave Ste 501,Dallas,TX,75225
17,Accounting,Frank Conroy Certified Public Accountant,http://cpadallas.org,(214) 696-8320,8750 N Central Expy Ste 950,Dallas,TX,75231
18,Accounting,Charles H Armstrong Jr Certified Public Accountant,http://cpadallas.org,(214) 987-1400,6051 Desco Dr,Dallas,TX,75225
19,Accounting,A James Lynn Certified Public Accountant,http://cpadallas.org,(214) 341-0000,6820 Walling Ln,Dallas,TX,75231
20,Accounting,Gary Hatfield Certified Public Accountant,http://cpadallas.org,(214) 361-2443,7424 Greenville Ave,Dallas,TX,75231
21,Accounting,Raymnd Peterson Certified Public Accountant,http://cpadallas.org,(214) 337-3769,5787 S Hampton Rd Ste 305,Dallas,TX,75232
22,Accounting,Lon Lovell Certified Public Accountant,http://cpadallas.org,(214) 343-7427,10828 Eden Roc Dr,Dallas,TX,75238
23,Accounting,Cathy D Kelly Certified Public Accountant,http://cpadallas.org,(214) 503-9330,9301 Moss Farm Ln,Dallas,TX,75243
24,Accounting,Larry T King Certified Public Accountant,http://cpadallas.org,(214) 352-1117,3198 Royal Ln,Dallas,TX,75229
25,Accounting,Jim N Reed Certified Public Accountant,http://cpadallas.org,(214) 553-5550,12959 Jupiter Rd,Dallas,TX,75238
26,Accounting,Michael P Bruce Certified Public Accountant,http://cpadallas.org,(972) 386-6991,12201 Merit Dr Ste 430,Dallas,TX,75251
27,Accounting,David P Hendricks Certified Public Accountant,http://cpadallas.org,(972) 770-4456,12222 Merit Dr,Dallas,TX,75251
28,Accounting,Jerry Lane Certified Public Accountant,http://cpadallas.org,(214) 346-5800,12400 Coit Rd,Dallas,TX,75251
29,Accounting,Mike Dunson Certified Public Accountant,http://cpadallas.org,(972) 458-1182,12655 N Central Expy,Dallas,TX,75243
30,Accounting,Ronald L Tharp Certified Public Accountant,http://www.accountantsintl.com,(972) 661-9928,12900 Preston Rd,Dallas,TX,75230
31,Accounting,Yoon Suh Certified Public Accountant,http://www.accountantsintl.com,(972) 241-5911,2216 Royal Ln,Dallas,TX,75229
32,Accounting,E L Young Certified Public Accountant,http://www.accountantsintl.com,(972) 620-1909,2735 Villa Creek Dr,Dallas,TX,75234
33,Accounting,Holly C. Roundtree Certified Public Accountant,http://www.accountantsintl.com,(972) 404-4434,13355 Noel Rd Ste 1960,Dallas,TX,75240
34,Accounting,Accountant,http://www.accountantsintl.com,(972) 458-7667,4141 Blue Lake Cir,Dallas,TX,75244
35,Accounting,Kerry Falkner Certified Public Accountant,http://www.accountantsintl.com,(972) 620-4878,1603 Lyndon B Johnson Fwy Ste 835,Dallas,TX,75234
36,Accounting,Michael W Martin Certified Public Accountant,http://www.accountantsintl.com,(972) 735-9992,5000 Quorum Dr Ste 630,Dallas,TX,75254
37,Accounting,Frank S McGee II Certified Public Accountant,http://www.accountantsintl.com,(972) 386-4488,14800 Quorum Dr,Dallas,TX,75254
38,Accounting,Accountant,http://www.accountantsintl.com,(972) 250-3399,16250 Knoll Trail Dr,Dallas,TX,75248
39,Accounting,Richard E Stone Certified Public Accountant,http://www.accountantsintl.com,(972) 931-7270,16819 Rustic Meadows Dr,Dallas,TX,75248
40,Accounting,Jim R Montgomery Certified Public Accountant,http://www.accountantsintl.com,(972) 732-0081,16990 Dallas Pkwy,Dallas,TX,75248
41,Accounting,Fred F Sims Certified Public Accountant,http://www.accountantsintl.com,(972) 239-1040,12240 Inwood Rd,Dallas,TX,75244
42,Accounting,Penny M Young Certified Public Accountant,http://www.accountantsintl.com,(214) 341-1897,10527 Church Rd,Dallas,TX,75238
43,Accounting,E L Young Certified Public Accountant,http://www.accountantsintl.com,(972) 620-1909,3003 Lyndon B Johnson Fwy,Dallas,TX,75234
44,Accounting,Douglas A. Sledge . Management Accountant,http://www.accountantsintl.com,(256) 443-1624,2625 Farmers Branch Ln,Dallas,TX,75234
45,Accounting,Accountants International,http://www.accountantsintl.com,(972) 501-0111,222 Las Colinas Blvd W,Irving,TX,75039
46,Accounting,Fs M Accountant,http://www.accountantsintl.com,(972) 296-8655,526 N Main St,Duncanville,TX,75116
47,Accounting,Michael W Kemp Certified Public Accountant,http://www.accountantsintl.com,(972) 780-8877,202 Santa Fe Trl,Duncanville,TX,75116
48,Accounting,Ted R Ellis Certified Public Accountant,http://www.accountantsintl.com,(972) 644-0244,901 Waterfall Way Ste 205,Richardson,TX,75080
49,Accounting,Stephen A Leake Certified Public Accountant,http://www.accountantsintl.com,(972) 285-8733,111 S Broad St,Mesquite,TX,75149
50,Accounting,Holly M Nicholas Certified Public Accountant,http://www.accountantsintl.com,(972) 687-9011,14275 Midway Rd Ste 130,Addison,TX,75001
51,Accounting,Ray Smith Certified Public Accountant,http://www.accountantsintl.com,(972) 437-3698,111 W Spring Valley Rd Ste 220,Richardson,TX,75081
52,Accounting,Edith E Smith Certified Public Accountant,http://www.accountantsintl.com,(972) 699-9006,3400 Chapelwood Dr,Sunnyvale,TX,75182
53,Accounting,Accountants Inc,http://www.accountantsintl.com,(214) 574-5111,909 Lake Carolyn Pkwy Ste 100,Irving,TX,75039
54,Accounting,Crawford Carter & Durbin LLC Certified Public Accountants,http://www.accountantsintl.com,(817) 385-9796,710 N Watson Rd Ste 100,Arlington,TX,76011
55,Accounting,Tax Accountant,http://www.accountantsintl.com,(469) 941-4367,1700 N Hampton Rd,Desoto,TX,75115
56,Accounting,Ed Roberts Certified Public Accountant,http://www.accountantsintl.com,(214) 624-5090,5656 N Macarthur Blvd,Irving,TX,75038
57,Accounting,Roger A Kerbow Certified Public Accountant,http://www.accountantsintl.com,(972) 264-4967,111 SW Dallas St,Grand,"Prairie,",TX
58,Accounting,Scott Cannon Certified Public Accountant,http://www.accountantsintl.com,(972) 298-9588,343 Cardinal Creek Dr,Duncanville,TX,75137
59,Accounting,David W Dahlman Certified Public Accountant,http://www.accountantsintl.com,(972) 270-8554,203 Manhattan Blvd,Sunnyvale,TX,75182
60,Accounting,Scott Belsley Certified Public Accountant,https://www.cpacp.com,(972) 235-1979,1215 Executive Dr W,Richardson,TX,75081
61,Accounting,Gary V Adkins Certified Public Accountant,https://www.cpacp.com,(972) 238-0762,1755 N Collins Blvd Ste 370,Richardson,TX,75080
62,Accounting,Lam & Po Crtif Pub Accountants,https://www.cpacp.com,(817) 640-1108,1170 W Corporate Dr,Arlington,TX,76006
63,Accounting,John Parker Certified Public Accountant,https://www.cpacp.com,(817) 226-6100,2011 E Lamar Blvd,Arlington,TX,76006
64,Accounting,Melinda Richardson Certified Public Accountant,https://www.cpacp.com,(817) 226-6100,2011 E Lamar Blvd,Arlington,TX,76006
65,Accounting,Les Wallace Certified Public Accountant,https://www.cpacp.com,(972) 291-2850,102 S Broad St,Cedar,"Hill,",TX
66,Accounting,Hill Steve Certified Public Accountant,https://www.cpacp.com,(972) 248-1800,6404 International Pkwy Ste 1800,Plano,TX,75093
67,Accounting,Fred M Ramsey Jr PC Certified Accountant,https://www.cpacp.com,(972) 820-8944,3610 N Josey Ln,Carrollton,TX,75007
68,Accounting,C Clark Choate Certified Public Accountant,https://www.cpacp.com,(972) 223-8384,426 Pearly Top Dr,Glenn,"Heights,",TX
69,Accounting,Certified Accountant,https://www.cpacp.com,(817) 583-6471,1600 E Pioneer Pkwy,Arlington,TX,76010
70,Accounting,Mark S Davis Certified Public Accountant,https://www.cpacp.com,(972) 623-0983,2993 S State Highway 360,Grand,"Prairie,",TX
71,Accounting,DFW Accountants,https://www.cpacp.com,(817) 640-5311,1170 W Corporate Dr,Arlington,TX,76006
72,Accounting,Ronald N Hunter Certified Public Accountant,https://www.cpacp.com,(972) 617-8877,302 E Ovilla Rd,Red,"Oak,",TX
73,Accounting,Bryan Rhodes Certified Public Accountant,https://www.cpacp.com,(817) 261-0119,500 E Border St,Arlington,TX,76010
74,Accounting,Joe Hassell Jr Certified Public Accountant,https://www.cpacp.com,(817) 571-6580,1812 Reliance Pkwy,Bedford,TX,76021
75,Accounting,Bmi Accountant,https://www.cpacp.com,(972) 394-4819,4207 Juniper Ln,Carrollton,TX,75010
76,Accounting,James L Livesay Certified Public Accountant,https://www.cpacp.com,(817) 461-3211,1105 W Lamar Blvd,Arlington,TX,76012
77,Accounting,Virtual Accountant Inc,https://www.cpacp.com,(817) 861-0145,920 W Mitchell St,Arlington,TX,76013
78,Accounting,Barry Johnson Certified Public Accountant,https://www.cpacp.com,(817) 277-7614,1414 W Randol Mill Rd Ste 120,Arlington,TX,76012
79,Accounting,American Chartered Accountants,https://www.cpacp.com,(469) 361-3615,2222 W Spring Creek Pkwy Ste 102,Plano,TX,75023
80,Accounting,Sharon L Perry Certified Public Accountant,https://www.cpacp.com,(817) 265-2898,1506 W Pioneer Pkwy,Arlington,TX,76013
81,Accounting,Steve Smith Certified Public Accountant,https://www.cpacp.com,(817) 466-9333,901 W Bardin Rd,Arlington,TX,76017
82,Accounting,Jack D Rankin Certified Public Accountant,https://www.cpacp.com,(817) 267-5301,801 Forest Ridge Dr Ste 100,Bedford,TX,76022
83,Accounting,Certified Accountants of Plano,https://www.cpacp.com,(214) 378-3718,7000 Preston Rd Ste 500,Plano,TX,75024
84,Accounting,David M Franklin Certified Public Accountant,https://www.cpacp.com,(817) 860-9220,2900 W Park Row Dr Ste E,Pantego,TX,76013
85,Accounting,James L Livesay Certified Public Accountant,https://www.cpacp.com,(817) 460-7647,1001 Findlay Dr,Arlington,TX,76012
86,Accounting,Wesley S Holmes Certified Public Accountant,https://www.cpacp.com,(817) 277-5624,2305 Roosevelt Dr Ste B,Arlington,TX,76016
87,Accounting,David E Allred Certified Public Accountant,https://www.cpacp.com,(817) 605-7300,5005 Colleyville Blvd Ste 220,Colleyville,TX,76034
88,Accounting,Charles Sawyer Certified Public Accountant,https://www.cpacp.com,(817) 303-8900,1281 W Green Oaks Blvd Ste 123,Arlington,TX,76013
89,Accounting,Donald G Richardson Certified Public Accountant,https://www.cpacp.com,(817) 451-7406,7559 John T White Rd,Fort,"Worth,",TX
90,Accounting,Kha Accountants & Advisors,https://www.bkm-cpa.com,(469) 635-2861,2850 Sagebrush Dr,Flower,"Mound,",TX
91,Accounting,Daniel H Weaver Certified Public Accountant,https://www.bkm-cpa.com,(817) 267-7050,1903 Central Dr Ste 315,Bedford,TX,76021
92,Accounting,BKM PC Certified Public Accountant,https://www.bkm-cpa.com,(817) 481-5535,230 N Park Blvd,Grapevine,TX,76051
93,Accounting,Jean Hood Certified Public Accountant,https://www.bkm-cpa.com,(972) 420-7944,376 W Main St,Lewisville,TX,75057
94,Accounting,Accountants In Fort Worth,https://www.bkm-cpa.com,(817) 829-4745,2477 Precinct Line Rd,North,Richland,"Hills,"
95,Accounting,"Chen, Xu & Company, PLLC Certified Public Accountants",https://www.bkm-cpa.com,(972) 292-7298,4103 Gallant Ct,Flower,"Mound,",TX
96,Accounting,J.A. Garrison & Co. Certified Public Accountants,https://www.bkm-cpa.com,(817) 332-3921,6912 NE Loop 820,North,Richland,"Hills,"
97,Accounting,Donald G McCartney Certified Public Accountant,https://www.bkm-cpa.com,(817) 563-7717,5850 W Interstate 20,Arlington,TX,76017
98,Accounting,Scott A Kunkel Certified Public Accountant,https://www.bkm-cpa.com,(817) 498-8299,7801 Mid Cities Blvd,North,Richland,"Hills,"
99,Accounting,Kyle Lain Certified Public Accountant,https://www.bkm-cpa.com,(972) 221-2500,4880 Long Prairie Rd,Flower,"Mound,",TX
100,Accounting,Ruth E Haynes Certified Public Accountant,https://www.bkm-cpa.com,(817) 589-1120,7232 Glenview Dr,Richland,"Hills,",TX
101,Accounting,Doug Williamson Certified Public Accountant,https://www.bkm-cpa.com,(817) 284-2887,6900 Boulevard 26,Richland,"Hills,",TX
102,Accounting,W E Boyd Certified Public Accountant,https://www.bkm-cpa.com,(817) 427-4325,1613 Wingate Ct,Keller,TX,76248
103,Accounting,Wayne A Farrar Certified Public Accountant,https://www.bkm-cpa.com,(817) 337-7879,1702 Falcon Dr,Keller,TX,76248
104,Accounting,Rosa Duran Certified Public Accountant,https://www.bkm-cpa.com,(817) 531-4066,3907 E Lancaster Ave,Fort,"Worth,",TX
105,Accounting,L Max Schuster Certified Public Accountant,https://www.bkm-cpa.com,(972) 937-3720,429 N College St,Waxahachie,TX,75165
106,Accounting,Mike Estes Certified Public Accountant,https://www.bkm-cpa.com,(817) 831-3553,4200 Airport Fwy,Haltom,"City,",TX
107,Accounting,Rayford Shelton Tax Accountant,https://www.bkm-cpa.com,(817) 834-3838,3508 Aster Ct,Fort,"Worth,",TX
108,Accounting,A Roger Certified Public Accountant,https://www.bkm-cpa.com,(972) 723-5480,207 N 8th St,Midlothian,TX,76065
109,Accounting,Peggy S Breeding Certified Public Accountant,https://www.bkm-cpa.com,(972) 547-0800,6951 Virginia Pkwy Ste 310,Mckinney,TX,75071
110,Accounting,Eileen Daugirda Certified Public Accountant,https://www.bkm-cpa.com,(817) 551-3900,101 W Trammell Ave,Fort,"Worth,",TX
111,Accounting,F G Fincher Certified Public Accountant,https://www.bkm-cpa.com,(817) 877-5050,750 North Fwy,Fort,"Worth,",TX
112,Accounting,R Clifford Parker Certified Public Accountant,https://www.bkm-cpa.com,(817) 332-7757,604 E 4th St,Fort,"Worth,",TX
113,Accounting,Drew D Poe Certified Public Accountant,https://www.bkm-cpa.com,(817) 336-0991,120 W 3rd St,Fort,"Worth,",TX
114,Accounting,Ronald G Rosen Certified Public Accountant,https://www.bkm-cpa.com,(817) 336-7719,1101 6th Ave,Fort,"Worth,",TX
115,Accounting,Accountants Executive Search-Ft Worth,https://www.bkm-cpa.com,(817) 870-1800,1612 Summit Ave,Fort,"Worth,",TX
116,Accounting,Barton E Head Certified Public Accountant,https://www.bkm-cpa.com,(817) 731-7717,2501 Parkview Dr Ste 207,Fort,"Worth,",TX
117,Accounting,Emile Denke Certified Public Accountant,https://www.bkm-cpa.com,(817) 336-2079,1300 S University Dr,Fort,"Worth,",TX
118,Accounting,C B Snow Certified Public Accountant,https://www.bkm-cpa.com,(817) 332-8660,316 Bailey Ave Ste 108,Fort,"Worth,",TX
119,Accounting,Kha Accountants & Advisors,https://www.bkm-cpa.com,(940) 591-9300,2717 Wind River Ln,Denton,TX,76210
120,Accounting,Robert Neil Johnson Certified Public Accountant,http://www.fortworthcpa.org,(972) 396-9518,Po Box 2307,Mckinney,TX,75070
121,Accounting,Gwen Ward Certified Public Accountant,http://www.fortworthcpa.org,(817) 335-5055,550 Bailey Ave,Fort,"Worth,",TX
122,Accounting,Fox Byrd & Co PC,http://www.fortworthcpa.org,(972) 362-5790,12001 N Central Expy Ste 500,Dallas,TX,75243
123,Accounting,Jackson Hewitt Tax Service,http://www.fortworthcpa.org,(877) 550-8861,4800 Columbia Ave Ste 400,Dallas,TX,75226
124,Accounting,Jackson Hewitt Tax Service,http://www.fortworthcpa.org,(877) 648-9813,4319 Lemmon Ave,Dallas,TX,75219
125,Accounting,Jackson Hewitt Tax Service,http://www.fortworthcpa.org,(877) 612-5915,3306 Elsie Faye Heggins St,Dallas,TX,75215
126,Accounting,Jackson Hewitt Tax Service,http://www.fortworthcpa.org,(877) 554-2826,6452 E Mockingbird Ln,Dallas,TX,75214
127,Accounting,Jackson Hewitt Tax Service,http://www.fortworthcpa.org,(877) 620-4493,142 Wynnewood Village Shp Ctr,Dallas,TX,75224
128,Accounting,Jackson Hewitt Tax Service,http://www.fortworthcpa.org,(877) 415-5876,3123 Dawes Dr,Dallas,TX,75211
129,Accounting,Jackson Hewitt Tax Service,http://www.fortworthcpa.org,(877) 589-6429,2441 W Kiest Blvd,Dallas,TX,75233
130,Accounting,Jackson Hewitt Tax Service,http://www.fortworthcpa.org,(877) 390-7487,3442 Webb Chapel Ext,Dallas,TX,75220
131,Accounting,Jackson Hewitt Tax Service,http://www.fortworthcpa.org,(877) 658-9952,3302 N Buckner Blvd Ste 102,Dallas,TX,75228
132,Accounting,Jackson Hewitt Tax Service,http://www.fortworthcpa.org,(877) 564-5383,2323 S Buckner Blvd Ste 100,Dallas,TX,75227
133,Accounting,"McElroy, George & Assoc.",http://www.fortworthcpa.org,(214) 905-3700,1349 Empire Central Dr Ste 600,Dallas,TX,75247
134,Accounting,SydTheCPA,http://www.fortworthcpa.org,(214) 971-2066,14902 Preston Rd Ste 404,Dallas,TX,75254
135,Accounting,Bulloch Dupertuis Schulman Seger & Co,http://www.fortworthcpa.org,(972) 695-2298,17101 Preston Rd Ste 210,Dallas,TX,75248
136,Accounting,Ablon and Co PLLC,http://www.fortworthcpa.org,(469) 250-2344,12001 N Central Expy Ste 600,Dallas,TX,75243
137,Accounting,Heaven Cyn't Lancaster Tax Preparation,http://www.fortworthcpa.org,(972) 218-7760,2926 Glorietta Lane,Dallas,TX,75214
138,Accounting,Bargman John F. CPA,http://www.fortworthcpa.org,(214) 368-5145,6060 N Central Expy Ste 220,Dallas,TX,75206
139,Accounting,Velazco Insurance,http://www.fortworthcpa.org,(214) 388-5002,4540 Lawnview Ave STE 109,Dallas,TX,75227
140,Accounting,Corporate Tax Prep Dallas TX,http://www.fortworthcpa.org,(972) 339-2828,5787 S Hampton Rd Ste 230,Dallas,TX,75232
141,Accounting,Jackson Hewitt Tax Service,http://www.fortworthcpa.org,(877) 285-9870,927 E Irving Blvd,Irving,TX,75060
142,Accounting,Jackson Hewitt Tax Service,http://www.fortworthcpa.org,(866) 716-4073,3600 Gus Thomasson Rd Ste 142,Mesquite,TX,75150
143,Accounting,Jackson Hewitt Tax Service,http://www.fortworthcpa.org,(866) 548-2683,1111 W Airport Fwy Ste 215,Irving,TX,75062
144,Accounting,Jackson Hewitt Tax Service,http://www.fortworthcpa.org,(877) 354-3958,1004 W Centerville Rd,Garland,TX,75041
145,Accounting,Jackson Hewitt Tax Service,http://www.fortworthcpa.org,(877) 464-1927,2002 N Galloway Ave Ste H,Mesquite,TX,75149
146,Accounting,Thelemann Bookkeeping & Tax Service,http://www.fortworthcpa.org,(972) 829-4398,2829 Saturn Rd,Garland,TX,75041
147,Accounting,Peggy's Tax Service,http://www.fortworthcpa.org,(972) 285-4926,721 Gross Rd,Mesquite,TX,75149
148,Accounting,Jackson Hewitt Tax Service,http://www.fortworthcpa.org,(877) 663-8801,133 W Main St Ste 100,Grand,"Prairie,",TX
149,Accounting,Jackson Hewitt Tax Service,http://www.fortworthcpa.org,(877) 664-3598,3717 N Belt Line Rd,Irving,TX,75038
150,Accounting,Jackson Hewitt Tax Service,https://www.jacksonhewitt.com/tax-help-options?utm_medium=display_yp&utm_source=yellowpages&utm_campaign=td-td-yp&promo=local,(877) 601-5873,3776 Belt Line Rd,Addison,TX,75001
151,Accounting,Jackson Hewitt Tax Service,https://www.jacksonhewitt.com/tax-help-options?utm_medium=display_yp&utm_source=yellowpages&utm_campaign=td-td-yp&promo=local,(877) 291-8961,2645 Arapaho Rd Ste 145,Garland,TX,75044
152,Accounting,Jackson Hewitt Tax Service,https://www.jacksonhewitt.com/tax-help-options?utm_medium=display_yp&utm_source=yellowpages&utm_campaign=td-td-yp&promo=local,(877) 629-0689,2753 W 15th St,Plano,TX,75075
153,Accounting,Jackson Hewitt Tax Service,https://www.jacksonhewitt.com/tax-help-options?utm_medium=display_yp&utm_source=yellowpages&utm_campaign=td-td-yp&promo=local,(877) 645-0040,108 Hall Rd,Seagoville,TX,75159
154,Accounting,Bland Garvey PC,https://www.jacksonhewitt.com/tax-help-options?utm_medium=display_yp&utm_source=yellowpages&utm_campaign=td-td-yp&promo=local,(469) 547-7996,2600 N Central Expy,Richardson,TX,75080
155,Accounting,QUALITAX & BUSINESS SERVICES,https://www.jacksonhewitt.com/tax-help-options?utm_medium=display_yp&utm_source=yellowpages&utm_campaign=td-td-yp&promo=local,(469) 909-3775,840 S Carrier Pkwy,Grand,"Prairie,",TX
156,Accounting,Brackeen Robert R,https://www.jacksonhewitt.com/tax-help-options?utm_medium=display_yp&utm_source=yellowpages&utm_campaign=td-td-yp&promo=local,(817) 608-9110,2225 E Randol Mill Rd,Arlington,TX,76011
157,Accounting,"Rutherford, Steven E",https://www.jacksonhewitt.com/tax-help-options?utm_medium=display_yp&utm_source=yellowpages&utm_campaign=td-td-yp&promo=local,(972) 296-0981,606 W Wheatland Rd,Duncanville,TX,75116
158,Accounting,Smart Tax Service,https://www.jacksonhewitt.com/tax-help-options?utm_medium=display_yp&utm_source=yellowpages&utm_campaign=td-td-yp&promo=local,(972) 642-1818,1038 N Carrier Pkwy,Grand,"Prairie,",TX
159,Accounting,McAuley Sheila CPA,https://www.jacksonhewitt.com/tax-help-options?utm_medium=display_yp&utm_source=yellowpages&utm_campaign=td-td-yp&promo=local,(817) 460-4985,2009 Crooked Creek Ln,Arlington,TX,76006
160,Accounting,Jackson Hewitt Tax Service,https://www.jacksonhewitt.com/tax-help-options?utm_medium=display_yp&utm_source=yellowpages&utm_campaign=td-td-yp&promo=local,(877) 467-9379,6700 Main St Ste 124,The,"Colony,",TX
161,Accounting,"Dave Dickerson & Associates, LLC",https://www.jacksonhewitt.com/tax-help-options?utm_medium=display_yp&utm_source=yellowpages&utm_campaign=td-td-yp&promo=local,(972) 291-3888,1675 American Way,Cedar,"Hill,",TX
162,Accounting,Richard G Hartman CPA,https://www.jacksonhewitt.com/tax-help-options?utm_medium=display_yp&utm_source=yellowpages&utm_campaign=td-td-yp&promo=local,(817) 277-4400,1608 Park Ridge Ter,Arlington,TX,76012
163,Accounting,MITCHUM PROPERTIES,https://www.jacksonhewitt.com/tax-help-options?utm_medium=display_yp&utm_source=yellowpages&utm_campaign=td-td-yp&promo=local,(214) 729-0836,1701 Cove Meadow Dr,Arlington,TX,76012
164,Accounting,Rankin & Khan LLP,https://www.jacksonhewitt.com/tax-help-options?utm_medium=display_yp&utm_source=yellowpages&utm_campaign=td-td-yp&promo=local,(817) 267-5301,807 Forest Ridge Dr,Bedford,TX,76022
165,Accounting,"The Vida Law Firm, PLLC",https://www.jacksonhewitt.com/tax-help-options?utm_medium=display_yp&utm_source=yellowpages&utm_campaign=td-td-yp&promo=local,(682) 206-3275,3000 Central Dr,Bedford,TX,76021
166,Accounting,Drew-Jarrell Income Tax,https://www.jacksonhewitt.com/tax-help-options?utm_medium=display_yp&utm_source=yellowpages&utm_campaign=td-td-yp&promo=local,(972) 722-1040,601 White Hills Dr,Rockwall,TX,75087
167,Accounting,Green Robert R,https://www.jacksonhewitt.com/tax-help-options?utm_medium=display_yp&utm_source=yellowpages&utm_campaign=td-td-yp&promo=local,(817) 652-4644,1521 N Cooper St Ste 530,Arlington,TX,76011
168,Accounting,"Mark I. Born, CPA, PC",https://www.jacksonhewitt.com/tax-help-options?utm_medium=display_yp&utm_source=yellowpages&utm_campaign=td-td-yp&promo=local,(972) 722-4997,2235 Ridge Rd Ste 107,Rockwall,TX,75087
169,Accounting,American Tax Services,https://www.jacksonhewitt.com/tax-help-options?utm_medium=display_yp&utm_source=yellowpages&utm_campaign=td-td-yp&promo=local,(817) 466-0023,4200 S Cooper St,Arlington,TX,76015
170,Accounting,Gregory S Simpson & Assoc. P.C.,https://www.jacksonhewitt.com/tax-help-options?utm_medium=display_yp&utm_source=yellowpages&utm_campaign=td-td-yp&promo=local,(817) 656-3397,9280 Huntington Sq,North,Richland,"Hills,"
171,Accounting,"Waters, Vollmering & Associates LLP",https://www.jacksonhewitt.com/tax-help-options?utm_medium=display_yp&utm_source=yellowpages&utm_campaign=td-td-yp&promo=local,(817) 473-0228,990 N Walnut Creek Dr,Mansfield,TX,76063
172,Accounting,Newton Buckley CPA,https://www.jacksonhewitt.com/tax-help-options?utm_medium=display_yp&utm_source=yellowpages&utm_campaign=td-td-yp&promo=local,(469) 656-4110,305 S Jupiter Ste 110,Allen,TX,75002
173,Accounting,"Paul B. Moore, CPA PLLC",https://www.jacksonhewitt.com/tax-help-options?utm_medium=display_yp&utm_source=yellowpages&utm_campaign=td-td-yp&promo=local,(682) 738-4702,8821 Davis Blvd Ste 510,Keller,TX,76248
174,Accounting,"Mary Elaine Mayer, P.L.L.C",https://www.jacksonhewitt.com/tax-help-options?utm_medium=display_yp&utm_source=yellowpages&utm_campaign=td-td-yp&promo=local,(817) 429-0861,5601 Airport Fwy,Haltom,"City,",TX
175,Accounting,Jackson Hewitt Tax Service,https://www.jacksonhewitt.com/tax-help-options?utm_medium=display_yp&utm_source=yellowpages&utm_campaign=td-td-yp&promo=local,(877) 657-2896,1330 N Mcdonald St Ste 209,Mckinney,TX,75071
176,Accounting,Richardson Phil & Associates,https://www.jacksonhewitt.com/tax-help-options?utm_medium=display_yp&utm_source=yellowpages&utm_campaign=td-td-yp&promo=local,(972) 562-8999,100 E University Dr,Mckinney,TX,75069
177,Accounting,"Jeremy A. Johnson, CPA P.C.",https://www.jacksonhewitt.com/tax-help-options?utm_medium=display_yp&utm_source=yellowpages&utm_campaign=td-td-yp&promo=local,(682) 224-3243,4388 W Vickery Blvd Ste 206,Fort,"Worth,",TX
178,Accounting,Western Finance,https://www.jacksonhewitt.com/tax-help-options?utm_medium=display_yp&utm_source=yellowpages&utm_campaign=td-td-yp&promo=local,(817) 926-0201,1617 W Berry St,Fort,"Worth,",TX
179,Accounting,Jackson Hewitt Tax Service,https://www.jacksonhewitt.com/tax-help-options?utm_medium=display_yp&utm_source=yellowpages&utm_campaign=td-td-yp&promo=local,,Serving theDallas Area,Serving theDallas Area,Serving theDallas Area,Serving theDallas Area
180,Accounting,Jackson Hewitt Tax Service,https://www.jacksonhewitt.com/tax-help-options?utm_medium=display_yp&utm_source=yellowpages&utm_campaign=td-td-yp&promo=local,,Serving theDallas Area,Serving theDallas Area,Serving theDallas Area,Serving theDallas Area
181,Accounting,Jackson Hewitt Tax Service,https://www.jacksonhewitt.com/tax-help-options?utm_medium=display_yp&utm_source=yellowpages&utm_campaign=td-td-yp&promo=local,,Serving theDallas Area,Serving theDallas Area,Serving theDallas Area,Serving theDallas Area
182,Accounting,Jackson Hewitt Tax Service,https://www.jacksonhewitt.com/tax-help-options?utm_medium=display_yp&utm_source=yellowpages&utm_campaign=td-td-yp&promo=local,,Serving theDallas Area,Serving theDallas Area,Serving theDallas Area,Serving theDallas Area
183,Accounting,Jackson Hewitt,https://www.jacksonhewitt.com/tax-help-options?utm_medium=display_yp&utm_source=yellowpages&utm_campaign=td-td-yp&promo=local,,None,None,None,None
184,Accounting,Tax Fortress,https://www.jacksonhewitt.com/tax-help-options?utm_medium=display_yp&utm_source=yellowpages&utm_campaign=td-td-yp&promo=local,,Serving theDallas Area,Serving theDallas Area,Serving theDallas Area,Serving theDallas Area
185,Accounting,US Tax Shield,https://www.jacksonhewitt.com/tax-help-options?utm_medium=display_yp&utm_source=yellowpages&utm_campaign=td-td-yp&promo=local,,Serving theDallas Area,Serving theDallas Area,Serving theDallas Area,Serving theDallas Area
186,Accounting,Optima Tax Relief,https://www.jacksonhewitt.com/tax-help-options?utm_medium=display_yp&utm_source=yellowpages&utm_campaign=td-td-yp&promo=local,,Serving theDallas Area,Serving theDallas Area,Serving theDallas Area,Serving theDallas Area
187,Accounting,The Tax Resolvers,https://www.jacksonhewitt.com/tax-help-options?utm_medium=display_yp&utm_source=yellowpages&utm_campaign=td-td-yp&promo=local,,Serving theDallas Area,Serving theDallas Area,Serving theDallas Area,Serving theDallas Area
188,Accounting,Alana Tax Group,https://www.jacksonhewitt.com/tax-help-options?utm_medium=display_yp&utm_source=yellowpages&utm_campaign=td-td-yp&promo=local,,Serving theDallas Area,Serving theDallas Area,Serving theDallas Area,Serving theDallas Area
189,Accounting,The Tax Resolvers,https://www.jacksonhewitt.com/tax-help-options?utm_medium=display_yp&utm_source=yellowpages&utm_campaign=td-td-yp&promo=local,,Serving theDallas Area,Serving theDallas Area,Serving theDallas Area,Serving theDallas Area
190,Accounting,Tax Fortress,https://www.jacksonhewitt.com/tax-help-options?utm_medium=display_yp&utm_source=yellowpages&utm_campaign=td-td-yp&promo=local,,Serving theDallas Area,Serving theDallas Area,Serving theDallas Area,Serving theDallas Area
191,Accounting,Optima Tax Relief,https://www.jacksonhewitt.com/tax-help-options?utm_medium=display_yp&utm_source=yellowpages&utm_campaign=td-td-yp&promo=local,,Serving theDallas Area,Serving theDallas Area,Serving theDallas Area,Serving theDallas Area
192,Accounting,J David Tax Law,https://www.jacksonhewitt.com/tax-help-options?utm_medium=display_yp&utm_source=yellowpages&utm_campaign=td-td-yp&promo=local,,Serving theDallas Area,Serving theDallas Area,Serving theDallas Area,Serving theDallas Area
193,Accounting,OIC Tax Services,https://www.jacksonhewitt.com/tax-help-options?utm_medium=display_yp&utm_source=yellowpages&utm_campaign=td-td-yp&promo=local,,Serving theDallas Area,Serving theDallas Area,Serving theDallas Area,Serving theDallas Area
194,Accounting,Anderson  Bradshaw Tax Consultants,https://www.jacksonhewitt.com/tax-help-options?utm_medium=display_yp&utm_source=yellowpages&utm_campaign=td-td-yp&promo=local,,Serving theDallas Area,Serving theDallas Area,Serving theDallas Area,Serving theDallas Area
195,Accounting,Accountants Accountants Executive - CLOSED,https://www.jacksonhewitt.com/tax-help-options?utm_medium=display_yp&utm_source=yellowpages&utm_campaign=td-td-yp&promo=local,,None,None,None,None
196,Accounting,Keith M Earl Certified Public Accountant - CLOSED,https://www.jacksonhewitt.com/tax-help-options?utm_medium=display_yp&utm_source=yellowpages&utm_campaign=td-td-yp&promo=local,,None,None,None,None
197,Accounting,"Accountants Desk, LLC - CLOSED",https://www.jacksonhewitt.com/tax-help-options?utm_medium=display_yp&utm_source=yellowpages&utm_campaign=td-td-yp&promo=local,(972) 984-0498,Accounting & Bookkeeping Svcs,Plano,TX,75024
